O3B MPOWER F1           
1 54755U 22174A   23341.46940866 -.00000012  00000+0  00000+0 0  9990
2 54755   0.0552  17.2093 0005817 253.0614 129.1350  5.00118447 19195
